{
    "links": {
        "self": "http://www.neowsapp.com/rest/v1/neo/3989312?api_key=iIulBulltgU6a56xZRHN4H3l9WmuAYTsLGpBGhQ2"
    },
    "id": "3989312",
    "neo_reference_id": "3989312",
    "name": "(2020 BY13)",
    "designation": "2020 BY13",
    "nasa_jpl_url": "http://ssd.jpl.nasa.gov/sbdb.cgi?sstr=3989312",
    "absolute_magnitude_h": 25.344,
    "estimated_diameter": {
        "kilometers": {
            "estimated_diameter_min": 0.0226858458,
            "estimated_diameter_max": 0.0507270934
        },
        "meters": {
            "estimated_diameter_min": 22.6858458435,
            "estimated_diameter_max": 50.7270934331
        },
        "miles": {
            "estimated_diameter_min": 0.0140963267,
            "estimated_diameter_max": 0.0315203448
        },
        "feet": {
            "estimated_diameter_min": 74.4286304771,
            "estimated_diameter_max": 166.4274772191
        }
    },
    "is_potentially_hazardous_asteroid": false,
    "close_approach_data": [
        {
            "close_approach_date": "2020-02-05",
            "close_approach_date_full": "2020-Feb-05 16:50",
            "epoch_date_close_approach": 1580921400000,
            "relative_velocity": {
                "kilometers_per_second": "9.3885632682",
                "kilometers_per_hour": "33798.8277654687",
                "miles_per_hour": "21001.2771746047"
            },
            "miss_distance": {
                "astronomical": "0.027637507",
                "lunar": "10.750990223",
                "kilometers": "4134512.17931009",
                "miles": "2569066.739015642"
            },
            "orbiting_body": "Earth"
        }
    ],
    "orbital_data": {
        "orbit_id": "5",
        "orbit_determination_date": "2020-03-17 01:09:10",
        "first_observation_date": "2020-01-29",
        "last_observation_date": "2020-02-21",
        "data_arc_in_days": 23,
        "observations_used": 32,
        "orbit_uncertainty": "8",
        "minimum_orbit_intersection": ".023136",
        "jupiter_tisserand_invariant": "3.191",
        "epoch_osculation": "2458879.5",
        "eccentricity": ".5936525180855867",
        "semi_major_axis": "2.481263064915951",
        "inclination": "10.06008517905501",
        "ascending_node_longitude": "132.951528825695",
        "orbital_period": "1427.603628635233",
        "perihelion_distance": "1.008254998395836",
        "perihelion_argument": "357.6383191204707",
        "aphelion_distance": "3.954271131436065",
        "perihelion_time": "2458881.269310925872",
        "mean_anomaly": "359.5538313853105",
        "mean_motion": ".2521708356430521",
        "equinox": "J2000",
        "orbit_class": {
            "orbit_class_type": "APO",
            "orbit_class_description": "Near-Earth asteroid orbits which cross the Earth’s orbit similar to that of 1862 Apollo",
            "orbit_class_range": "a (semi-major axis) > 1.0 AU; q (perihelion) < 1.017 AU"
        }
    },
    "is_sentry_object": false
}